{
    "links": {
        "self": "http://www.neowsapp.com/rest/v1/neo/3291351?api_key=iIulBulltgU6a56xZRHN4H3l9WmuAYTsLGpBGhQ2"
    },
    "id": "3291351",
    "neo_reference_id": "3291351",
    "name": "(2005 SJ26)",
    "designation": "2005 SJ26",
    "nasa_jpl_url": "http://ssd.jpl.nasa.gov/sbdb.cgi?sstr=3291351",
    "absolute_magnitude_h": 23.9,
    "estimated_diameter": {
        "kilometers": {
            "estimated_diameter_min": 0.04411182,
            "estimated_diameter_max": 0.0986370281
        },
        "meters": {
            "estimated_diameter_min": 44.1118199997,
            "estimated_diameter_max": 98.6370281305
        },
        "miles": {
            "estimated_diameter_min": 0.0274098057,
            "estimated_diameter_max": 0.0612901888
        },
        "feet": {
            "estimated_diameter_min": 144.7238235278,
            "estimated_diameter_max": 323.6123073718
        }
    },
    "is_potentially_hazardous_asteroid": false,
    "close_approach_data": [
        {
            "close_approach_date": "2001-12-04",
            "close_approach_date_full": "2001-Dec-04 21:34",
            "epoch_date_close_approach": 1007501640000,
            "relative_velocity": {
                "kilometers_per_second": "20.5794059511",
                "kilometers_per_hour": "74085.8614240496",
                "miles_per_hour": "46034.0731720713"
            },
            "miss_distance": {
                "astronomical": "0.4584857732",
                "lunar": "178.3509657748",
                "kilometers": "68588495.096023084",
                "miles": "42618914.5873391992"
            },
            "orbiting_body": "Earth"
        },
        {
            "close_approach_date": "2005-10-06",
            "close_approach_date_full": "2005-Oct-06 20:05",
            "epoch_date_close_approach": 1128629100000,
            "relative_velocity": {
                "kilometers_per_second": "7.4268478226",
                "kilometers_per_hour": "26736.6521615122",
                "miles_per_hour": "16613.1158944685"
            },
            "miss_distance": {
                "astronomical": "0.050776097",
                "lunar": "19.751901733",
                "kilometers": "7595995.95811339",
                "miles": "4719933.022169182"
            },
            "orbiting_body": "Earth"
        }
    ],
    "orbital_data": {
        "orbit_id": "11",
        "orbit_determination_date": "2017-04-06 09:10:24",
        "first_observation_date": "2005-09-29",
        "last_observation_date": "2005-10-20",
        "data_arc_in_days": 21,
        "observations_used": 48,
        "orbit_uncertainty": "7",
        "minimum_orbit_intersection": ".0422477",
        "jupiter_tisserand_invariant": "3.217",
        "epoch_osculation": "2459000.5",
        "eccentricity": ".5830557182885269",
        "semi_major_axis": "2.481827820721022",
        "inclination": "3.553133777113489",
        "ascending_node_longitude": "39.01349841869076",
        "orbital_period": "1428.091057793836",
        "perihelion_distance": "1.034783918042077",
        "perihelion_argument": "343.6610685595664",
        "aphelion_distance": "3.928871723399967",
        "perihelion_time": "2459369.378276462716",
        "mean_anomaly": "267.0114060291605",
        "mean_motion": ".2520847659085131",
        "equinox": "J2000",
        "orbit_class": {
            "orbit_class_type": "AMO",
            "orbit_class_description": "Near-Earth asteroid orbits similar to that of 1221 Amor",
            "orbit_class_range": "1.017 AU < q (perihelion) < 1.3 AU"
        }
    },
    "is_sentry_object": false
}